     2.100          NAVIGATION                              RINEX VERSION / TYPE
fic2rin                                 02/28/2010 00:20:26 PGM / RUN BY / DATE
                                                            END OF HEADER
 3 10  2 27 18  0  0.0  .521513167769D-03  .500222085975D-11  .000000000000D+00
     .500000000000D+02 -.730625000000D+02  .499520807047D-08  .341842011800D+00
    -.380910933018D-05  .128669161350D-01  .137016177177D-04  .515370716286D+04
     .583200000000D+06 -.162050127983D-06 -.170412051580D+00  .165775418282D-06
     .927458739716D+00  .100281250000D+03  .981372824174D+00 -.844678041374D-08
    -.535736601294D-10  .100000000000D+01  .157200000000D+04  .000000000000D+00
     .340000000000D+01  .000000000000D+00 -.419095158577D-08  .500000000000D+02
     .576006000000D+06  .400000000000D+01
 4 10  2 27 18  0  0.0  .250870361924D-04  .886757334229D-11  .000000000000D+00
     .440000000000D+02  .669375000000D+02  .543951229181D-08 -.279599534571D+01
     .329688191414D-05  .911560503300D-02  .698678195477D-05  .515363777161D+04
     .583200000000D+06 -.447034835815D-07  .998346199526D+00 -.253319740295D-06
     .939288296145D+00  .233781250000D+03  .596837081369D+00 -.845499504162D-08
     .652527180376D-09  .100000000000D+01  .157200000000D+04  .000000000000D+00
     .240000000000D+01  .000000000000D+00 -.605359673500D-08  .440000000000D+02
     .576006000000D+06  .400000000000D+01
 5 10  2 27 18  0  0.0 -.586640089750D-05  .193267624127D-11  .000000000000D+00
     .320000000000D+02 -.590625000000D+02  .513878547961D-08  .193112219881D+01
    -.295415520668D-05  .190065195784D-02  .575743615627D-05  .515364925003D+04
     .583200000000D+06 -.558793544769D-08  .203999455330D+01  .931322574615D-08
     .959056267812D+00  .270468750000D+03  .348785598857D+00 -.841606484860D-08
    -.556451749877D-09  .100000000000D+01  .157200000000D+04  .000000000000D+00
     .240000000000D+01  .000000000000D+00 -.884756445885D-08  .320000000000D+02
     .576006000000D+06  .400000000000D+01
 6 10  2 27 18  0  0.0  .697457231581D-03 -.613908923697D-11  .000000000000D+00
     .560000000000D+02 -.652500000000D+02  .470412451710D-08  .259832084727D+01
    -.348500907421D-05  .604013190605D-02  .141505151987D-04  .515367977524D+04
     .583200000000D+06  .912696123123D-07 -.100568256546D+00  .279396772385D-07
     .934859456489D+00  .896250000000D+02 -.113528686978D+01 -.803997775449D-08
     .492877673191D-10  .100000000000D+01  .157200000000D+04  .000000000000D+00
     .240000000000D+01  .000000000000D+00 -.465661287308D-08  .560000000000D+02
     .576006000000D+06  .400000000000D+01
 7 10  2 27 18  0  0.0  .228639692068D-05 -.568434188608D-12  .000000000000D+00
     .760000000000D+02  .121718750000D+03  .449625871579D-08 -.119357303121D+01
     .620819628239D-05  .325200031511D-02  .473484396935D-05  .515372063828D+04
     .583200000000D+06 -.447034835815D-07 -.214386910272D+01 -.143423676491D-06
     .970585661246D+00  .294625000000D+03  .307099354517D+01 -.833141846559D-08
     .482162941165D-09  .100000000000D+01  .157200000000D+04  .000000000000D+00
     .240000000000D+01  .000000000000D+00 -.107102096081D-07  .760000000000D+02
     .576006000000D+06  .400000000000D+01
 8 10  2 27 18  0  0.0  .369315966964D-05  .341060513165D-12  .000000000000D+00
     .630000000000D+02  .108625000000D+03  .410088510404D-08 -.179407828604D+01
     .546313822269D-05  .109435077757D-01  .445917248726D-05  .515371041870D+04
     .583200000000D+06 -.707805156708D-07 -.207779803882D+01 -.175088644028D-06
     .991854098247D+00  .312093750000D+03  .309006861886D+01 -.813926760459D-08
     .586810157284D-09  .100000000000D+01  .157200000000D+04  .000000000000D+00
     .340000000000D+01  .000000000000D+00 -.419095158577D-08  .630000000000D+02
     .576006000000D+06  .400000000000D+01
 9 10  2 27 18  0  0.0  .108606647700D-03  .227373675443D-11  .000000000000D+00
     .520000000000D+02  .116625000000D+03  .411302846700D-08 -.192138570950D+01
     .634044408798D-05  .207038921071D-01  .467523932457D-05  .515360566521D+04
     .583200000000D+06  .307336449623D-06 -.217590442953D+01  .288709998131D-06
     .979412300362D+00  .297312500000D+03  .153193177070D+01 -.793497338063D-08
     .430375069706D-09  .100000000000D+01  .157200000000D+04  .000000000000D+00
     .340000000000D+01  .000000000000D+00 -.558793544769D-08  .520000000000D+02
     .576006000000D+06  .400000000000D+01
10 10  2 27 18  0  0.0 -.365860760212D-04 -.102318153949D-11  .000000000000D+00
     .104000000000D+03 -.636250000000D+02  .522414617809D-08  .193863136462D+01
    -.332668423653D-05  .915721431375D-02  .613555312157D-05  .515345279694D+04
     .583200000000D+06 -.184401869774D-06  .206627084854D+01 -.316649675369D-07
     .954114382785D+00  .262531250000D+03  .656166372146D+00 -.846963850873D-08
    -.607525305868D-09  .100000000000D+01  .157200000000D+04  .000000000000D+00
     .485000000000D+01  .000000000000D+00 -.279396772385D-08  .104000000000D+03
     .576006000000D+06  .400000000000D+01
11 10  2 27 18  0  0.0 -.477540306747D-04 -.216004991671D-11  .000000000000D+00
     .800000000000D+01  .802187500000D+02  .642205321858D-08 -.128146234792D+01
     .421516597271D-05  .105049574049D-01  .846013426781D-05  .515372397041D+04
     .583200000000D+06  .318512320518D-06  .766235055691D+00  .353902578354D-07
     .888797093281D+00  .174218750000D+03  .793989117634D+00 -.898680290784D-08
     .750031241812D-09  .100000000000D+01  .157200000000D+04  .000000000000D+00
     .240000000000D+01  .000000000000D+00 -.116415321827D-07  .800000000000D+01
     .576006000000D+06  .400000000000D+01
12 10  2 27 18  0  0.0 -.144824851304D-03  .466116034659D-11  .000000000000D+00
     .370000000000D+02 -.101062500000D+03  .455626121514D-08 -.110260401447D+01
    -.521354377270D-05  .346145115327D-02  .366568565369D-05  .515374176979D+04
     .583200000000D+06 -.819563865662D-07 -.108990718168D+01 -.577419996262D-07
     .969596632072D+00  .314343750000D+03 -.535907933139D+00 -.838999233400D-08
    -.300726812193D-09  .100000000000D+01  .157200000000D+04  .000000000000D+00
     .240000000000D+01  .000000000000D+00 -.121071934700D-07  .370000000000D+02
     .576006000000D+06  .400000000000D+01
13 10  2 27 18  0  0.0  .306295696646D-03 -.113686837722D-12  .000000000000D+00
     .710000000000D+02  .587812500000D+02  .337085469534D-08  .131781460116D+01
     .284612178802D-05  .419130886439D-02  .152904540300D-04  .515359087181D+04
     .583200000000D+06 -.353902578354D-07 -.312665335611D+01 -.949949026108D-07
     .993842378004D+00  .100000000000D+03  .163930024248D+01 -.745566770134D-08
    -.201436962087D-09  .100000000000D+01  .157200000000D+04  .000000000000D+00
     .240000000000D+01  .000000000000D+00 -.111758708954D-07  .710000000000D+02
     .576006000000D+06  .400000000000D+01
14 10  2 27 18  0  0.0  .165184028447D-04  .420641299570D-11  .000000000000D+00
     .120000000000D+02  .504687500000D+02  .360336438030D-08  .113753600831D+01
     .264123082161D-05  .495815032627D-02  .137817114592D-04  .515371888542D+04
     .583200000000D+06 -.800937414169D-07  .313531229361D+01  .242143869400D-07
     .987152441924D+00  .130406250000D+03 -.210005878340D+01 -.759531637541D-08
    -.238581366443D-09  .100000000000D+01  .157200000000D+04  .000000000000D+00
     .240000000000D+01  .000000000000D+00 -.884756445885D-08  .120000000000D+02
     .576006000000D+06  .400000000000D+01
15 10  2 27 18  0  0.0 -.302916392684D-03  .341060513165D-11  .000000000000D+00
     .690000000000D+02  .196250000000D+02  .440375486264D-08  .115056178554D+01
     .119023025036D-05  .241949164774D-02  .134259462357D-04  .515373330879D+04
     .583200000000D+06  .353902578354D-07  .307415228520D+01  .353902578354D-07
     .954816304046D+00  .113437500000D+03 -.262769134738D+00 -.789782897628D-08
    -.305012705003D-09  .100000000000D+01  .157200000000D+04  .000000000000D+00
     .240000000000D+01  .000000000000D+00 -.977888703346D-08  .690000000000D+02
     .576006000000D+06  .400000000000D+01
16 10  2 27 18  0  0.0 -.459114089608D-04 -.397903932026D-11  .000000000000D+00
     .100000000000D+03 -.103531250000D+03  .457733352146D-08  .284059779275D+01
    -.529550015926D-05  .572694651783D-02  .398978590965D-05  .515371784210D+04
     .583200000000D+06 -.111758708954D-06 -.107258618189D+01  .875443220139D-07
     .970882512194D+00  .307468750000D+03 -.270086280852D+00 -.834570477496D-08
    -.382158775590D-09  .100000000000D+01  .157200000000D+04  .000000000000D+00
     .240000000000D+01  .000000000000D+00 -.977888703346D-08  .100000000000D+03
     .576006000000D+06  .400000000000D+01
17 10  2 27 18  0  0.0  .133130233735D-03  .295585778076D-11  .000000000000D+00
     .680000000000D+02 -.706250000000D+02  .411945730622D-08  .157395451092D+01
    -.356137752533D-05  .519727717619D-02  .146236270666D-04  .515358520508D+04
     .583200000000D+06 -.800937414169D-07 -.296782585729D-01  .894069671631D-07
     .960627310166D+00  .940937500000D+02 -.256605941769D+01 -.787604235449D-08
     .140005831805D-09  .100000000000D+01  .157200000000D+04  .000000000000D+00
     .240000000000D+01  .000000000000D+00 -.102445483208D-07  .680000000000D+02
     .576006000000D+06  .400000000000D+01
18 10  2 27 18  0  0.0  .518132001162D-04  .261479726760D-11  .000000000000D+00
     .960000000000D+02 -.632187500000D+02  .539129599769D-08  .305487452276D+01
    -.331550836563D-05  .109894383932D-01  .588595867157D-05  .515366755104D+04
     .583200000000D+06 -.856816768646D-07  .206755108034D+01 -.201165676117D-06
     .938109589401D+00  .252343750000D+03 -.235243573138D+01 -.843999441679D-08
    -.578238371663D-09  .100000000000D+01  .157200000000D+04  .000000000000D+00
     .240000000000D+01  .000000000000D+00 -.107102096081D-07  .960000000000D+02
     .576006000000D+06  .400000000000D+01
